[{"OBJECT_NAME":"STARLINK-34057","OBJECT_ID":"2025-092L","EPOCH":"2026-03-09T08:01:13.967616","MEAN_MOTION":15.27586967,"ECCENTRICITY":9.576e-5,"INCLINATION":42.9942,"RA_OF_ASC_NODE":174.262,"ARG_OF_PERICENTER":168.9023,"MEAN_ANOMALY":191.185,"EPHEMERIS_TYPE":0,"CLASSIFICATION_TYPE":"U","NORAD_CAT_ID":63814,"ELEMENT_SET_NO":999,"REV_AT_EPOCH":4856,"BSTAR":0.0010480248,"MEAN_MOTION_DOT":0.00028696,"MEAN_MOTION_DDOT":0},{"OBJECT_NAME":"GEOSCAN 4 (RS92S4)","OBJECT_ID":"2025-155S","EPOCH":"2026-03-09T21:50:07.724832","MEAN_MOTION":15.30369837,"ECCENTRICITY":0.00070968,"INCLINATION":97.4465,"RA_OF_ASC_NODE":37.7626,"ARG_OF_PERICENTER":154.7045,"MEAN_ANOMALY":205.4544,"EPHEMERIS_TYPE":0,"CLASSIFICATION_TYPE":"U","NORAD_CAT_ID":64892,"ELEMENT_SET_NO":999,"REV_AT_EPOCH":6562,"BSTAR":0.00068609503,"MEAN_MOTION_DOT":0.00020121,"MEAN_MOTION_DDOT":0}]
